0 COSMOS 2251 DEB
1 34731U 93036YZ  13282.19747125  .00058418  00000-0  64021-2 0  2344
2 34731 074.0193 358.0732 0045963 148.5598 241.6379 14.86659627243082
0 COSMOS 2251 DEB
1 34731U 93036YZ  13283.20693395  .00046695  00000-0  51166-2 0  2357
2 34731 074.0194 356.0613 0045714 146.3374 244.3778 14.86746507243235
0 COSMOS 2251 DEB
1 34731U 93036YZ  13286.24128332  .00028964  00000-0  31694-2 0  2373
2 34731 074.0218 350.0141 0045186 139.3104 286.3736 14.86938286243684
0 COSMOS 2251 DEB
1 34731U 93036YZ  13287.24963034  .00031468  00000-0  34378-2 0  2386
2 34731 074.0207 348.0040 0045072 137.0271 284.1512 14.86990662243832
0 COSMOS 2251 DEB
1 34731U 93036YZ  13287.60265964  .00042981  00000-0  46854-2 0  2398
2 34731 074.0205 347.2997 0044704 136.4241 013.8013 14.87012798243887
0 COSMOS 2251 DEB
1 34731U 93036YZ  13289.19949196  .00041618  00000-0  45247-2 0  2414
2 34731 074.0188 344.1149 0043868 132.6221 282.7188 14.87157542244123
0 COSMOS 2251 DEB
1 34731U 93036YZ  13290.13679517  .00040468  00000-0  43921-2 0  2427
2 34731 074.0191 342.2472 0044346 130.4468 261.0115 14.87218612244267
0 COSMOS 2251 DEB
1 34731U 93036YZ  13291.14564626  .00035897  00000-0  38934-2 0  2432
2 34731 074.0192 340.2348 0043912 128.2084 262.4911 14.87290916244407
0 COSMOS 2251 DEB
1 34731U 93036YZ  13292.30628404  .00033093  00000-0  35852-2 0  2449
2 34731 074.0201 337.9200 0043782 125.4329 357.1570 14.87360046244588
0 COSMOS 2251 DEB
1 34731U 93036YZ  13293.59116950  .00035215  00000-0  38075-2 0  2458
2 34731 074.0197 335.3568 0043620 122.3958 037.4185 14.87430843244770
0 COSMOS 2251 DEB
1 34731U 93036YZ  13295.18683594  .00038595  00000-0  41623-2 0  2466
2 34731 074.0195 332.1730 0043309 118.5929 302.3397 14.87521951245011
0 COSMOS 2251 DEB
1 34731U 93036YZ  13296.19583403  .00040539  00000-0  43627-2 0  2474
2 34731 074.0194 330.1595 0043360 116.1932 305.8736 14.87593463245160
